{"type": "FeatureCollection", "features": [{"type": "Feature", "properties": {"norad_id": 22490, "name": "SCD 1", "group": "resource", "lat": -24.923953611735705, "lon": -147.9615123515871, "alt_km": 710.3616791552349, "timestamp": "2025-12-08T10:52:02.605647+00:00", "meta": {"OBJECT_NAME": "SCD 1", "OBJECT_ID": "1993-009B", "EPOCH": "2025-12-07T22:11:20.371776", "MEAN_MOTION": 14.45993289, "ECCENTRICITY": 0.00417278, "INCLINATION": 24.9706, "RA_OF_ASC_NODE": 308.4115, "ARG_OF_PERICENTER": 273.8117, "MEAN_ANOMALY": 117.9422, "EPHEMERIS_TYPE": 0, "CLASSIFICATION_TYPE": "U", "NORAD_CAT_ID": 22490, "ELEMENT_SET_NO": 999, "REV_AT_EPOCH": 73340, "BSTAR": 0.00015469167, "MEAN_MOTION_DOT": 7.52e-06, "MEAN_MOTION_DDOT": 0}, "tle": {"line1": "1 22490U 93009B   25341.92454134  .00000752  00000+0  15469-3 0  9996", "line2": "2 22490  24.9706 308.4115 0041727 273.8117 117.9422 14.45993289733406"}}, "geometry": {"type": "Point", "coordinates": [-147.9615123515871, -24.923953611735705]}}, {"type": "Feature", "properties": {"norad_id": 25397, "name": "TECHSAT 1B (GO-32)", "group": "resource", "lat": 20.506680372689786, "lon": 148.9608938579532, "alt_km": 810.6635413705799, "timestamp": "2025-12-08T10:52:02.605679+00:00", "meta": {"OBJECT_NAME": "TECHSAT 1B (GO-32)", "OBJECT_ID": "1998-043D", "EPOCH": "2025-12-07T22:19:18.226848", "MEAN_MOTION": 14.24374862, "ECCENTRICITY": 0.00021662, "INCLINATION": 98.9914, "RA_OF_ASC_NODE": 325.0312, "ARG_OF_PERICENTER": 64.9459, "MEAN_ANOMALY": 295.1944, "EPHEMERIS_TYPE": 0, "CLASSIFICATION_TYPE": "U", "NORAD_CAT_ID": 25397, "ELEMENT_SET_NO": 999, "REV_AT_EPOCH": 42410, "BSTAR": 8.8595403e-05, "MEAN_MOTION_DOT": 1.58e-06, "MEAN_MOTION_DDOT": 0}, "tle": {"line1": "1 25397U 98043D   25341.93007207  .00000158  00000+0  88595-4 0  9995", "line2": "2 25397  98.9914 325.0312 0002166  64.9459 295.1944 14.24374862424102"}}, "geometry": {"type": "Point", "coordinates": [148.9608938579532, 20.506680372689786]}}, {"type": "Feature", "properties": {"norad_id": 25504, "name": "SCD 2", "group": "resource", "lat": -19.332477618654345, "lon": 119.4745750034854, "alt_km": 731.8523812907943, "timestamp": "2025-12-08T10:52:02.605695+00:00", "meta": {"OBJECT_NAME": "SCD 2", "OBJECT_ID": "1998-060A", "EPOCH": "2025-12-07T22:22:24.926016", "MEAN_MOTION": 14.45418977, "ECCENTRICITY": 0.00165909, "INCLINATION": 24.9932, "RA_OF_ASC_NODE": 171.541, "ARG_OF_PERICENTER": 262.1485, "MEAN_ANOMALY": 211.8207, "EPHEMERIS_TYPE": 0, "CLASSIFICATION_TYPE": "U", "NORAD_CAT_ID": 25504, "ELEMENT_SET_NO": 999, "REV_AT_EPOCH": 43262, "BSTAR": 0.00011368639, "MEAN_MOTION_DOT": 5.89e-06, "MEAN_MOTION_DDOT": 0}, "tle": {"line1": "1 25504U 98060A   25341.93223294  .00000589  00000+0  11369-3 0  9992", "line2": "2 25504  24.9932 171.5410 0016590 262.1485 211.8207 14.45418977432623"}}, "geometry": {"type": "Point", "coordinates": [119.4745750034854, -19.332477618654345]}}, {"type": "Feature", "properties": {"norad_id": 25757, "name": "DLR-TUBSAT", "group": "resource", "lat": -52.755918706802284, "lon": -21.607135053286008, "alt_km": 726.6188353941479, "timestamp": "2025-12-08T10:52:02.605709+00:00", "meta": {"OBJECT_NAME": "DLR-TUBSAT", "OBJECT_ID": "1999-029B", "EPOCH": "2025-12-07T21:53:12.091200", "MEAN_MOTION": 14.52354641, "ECCENTRICITY": 0.00136293, "INCLINATION": 98.6558, "RA_OF_ASC_NODE": 326.2768, "ARG_OF_PERICENTER": 207.9079, "MEAN_ANOMALY": 152.1385, "EPHEMERIS_TYPE": 0, "CLASSIFICATION_TYPE": "U", "NORAD_CAT_ID": 25757, "ELEMENT_SET_NO": 999, "REV_AT_EPOCH": 40548, "BSTAR": 7.1887537e-05, "MEAN_MOTION_DOT": 2.44e-06, "MEAN_MOTION_DDOT": 0}, "tle": {"line1": "1 25757U 99029B   25341.91194550  .00000244  00000+0  71888-4 0  9999", "line2": "2 25757  98.6558 326.2768 0013629 207.9079 152.1385 14.52354641405489"}}, "geometry": {"type": "Point", "coordinates": [-21.607135053286008, -52.755918706802284]}}, {"type": "Feature", "properties": {"norad_id": 25994, "name": "TERRA", "group": "resource", "lat": -57.23902941334088, "lon": -158.28925926689755, "alt_km": 698.8819933503601, "timestamp": "2025-12-08T10:52:02.605721+00:00", "meta": {"OBJECT_NAME": "TERRA", "OBJECT_ID": "1999-068A", "EPOCH": "2025-12-07T22:44:13.839360", "MEAN_MOTION": 14.60943753, "ECCENTRICITY": 0.0003519, "INCLINATION": 97.9754, "RA_OF_ASC_NODE": 33.8076, "ARG_OF_PERICENTER": 107.4946, "MEAN_ANOMALY": 353.8801, "EPHEMERIS_TYPE": 0, "CLASSIFICATION_TYPE": "U", "NORAD_CAT_ID": 25994, "ELEMENT_SET_NO": 999, "REV_AT_EPOCH": 38168, "BSTAR": 0.00017800922, "MEAN_MOTION_DOT": 8.27e-06, "MEAN_MOTION_DDOT": 0}, "tle": {"line1": "1 25994U 99068A   25341.94738240  .00000827  00000+0  17801-3 0  9999", "line2": "2 25994  97.9754  33.8076 0003519 107.4946 353.8801 14.60943753381684"}}, "geometry": {"type": "Point", "coordinates": [-158.28925926689755, -57.23902941334088]}}, {"type": "Feature", "properties": {"norad_id": 27004, "name": "MAROC-TUBSAT", "group": "resource", "lat": -3.1515619955499234, "lon": -29.722304115460766, "alt_km": 1001.481132978719, "timestamp": "2025-12-08T10:52:02.605733+00:00", "meta": {"OBJECT_NAME": "MAROC-TUBSAT", "OBJECT_ID": "2001-056D", "EPOCH": "2025-12-08T00:00:54.150336", "MEAN_MOTION": 13.70252514, "ECCENTRICITY": 0.00190826, "INCLINATION": 99.7912, "RA_OF_ASC_NODE": 150.3626, "ARG_OF_PERICENTER": 272.7391, "MEAN_ANOMALY": 201.1521, "EPHEMERIS_TYPE": 0, "CLASSIFICATION_TYPE": "U", "NORAD_CAT_ID": 27004, "ELEMENT_SET_NO": 999, "REV_AT_EPOCH": 20000, "BSTAR": 3.046346e-05, "MEAN_MOTION_DOT": -2e-07, "MEAN_MOTION_DDOT": 0}, "tle": {"line1": "1 27004U 01056D   25342.00062674 -.00000020  00000+0  30463-4 0  9998", "line2": "2 27004  99.7912 150.3626 0019082 272.7391 201.1521 13.70252514200000"}}, "geometry": {"type": "Point", "coordinates": [-29.722304115460766, -3.1515619955499234]}}, {"type": "Feature", "properties": {"norad_id": 27424, "name": "AQUA", "group": "resource", "lat": 77.63606918267554, "lon": 165.6675238614986, "alt_km": 679.4473956134425, "timestamp": "2025-12-08T10:52:02.605745+00:00", "meta": {"OBJECT_NAME": "AQUA", "OBJECT_ID": "2002-022A", "EPOCH": "2025-12-07T23:06:08.059392", "MEAN_MOTION": 14.61791221, "ECCENTRICITY": 9.429e-05, "INCLINATION": 98.4034, "RA_OF_ASC_NODE": 302.7639, "ARG_OF_PERICENTER": 114.1471, "MEAN_ANOMALY": 286.7287, "EPHEMERIS_TYPE": 0, "CLASSIFICATION_TYPE": "U", "NORAD_CAT_ID": 27424, "ELEMENT_SET_NO": 999, "REV_AT_EPOCH": 25533, "BSTAR": 0.00035411837, "MEAN_MOTION_DOT": 1.718e-05, "MEAN_MOTION_DDOT": 0}, "tle": {"line1": "1 27424U 02022A   25341.96259328  .00001718  00000+0  35412-3 0  9998", "line2": "2 27424  98.4034 302.7639 0000942 114.1471 286.7287 14.61791221255335"}}, "geometry": {"type": "Point", "coordinates": [165.6675238614986, 77.63606918267554]}}, {"type": "Feature", "properties": {"norad_id": 28051, "name": "IRS-P6 (RESOURCESAT-1)", "group": "resource", "lat": 0.164842107868741, "lon": 23.0346805835449, "alt_km": 818.9105621994904, "timestamp": "2025-12-08T10:52:02.605756+00:00", "meta": {"OBJECT_NAME": "IRS-P6 (RESOURCESAT-1)", "OBJECT_ID": "2003-046A", "EPOCH": "2025-12-07T23:29:14.945280", "MEAN_MOTION": 14.36071413, "ECCENTRICITY": 0.00639264, "INCLINATION": 98.2185, "RA_OF_ASC_NODE": 22.6063, "ARG_OF_PERICENTER": 195.0004, "MEAN_ANOMALY": 235.1832, "EPHEMERIS_TYPE": 0, "CLASSIFICATION_TYPE": "U", "NORAD_CAT_ID": 28051, "ELEMENT_SET_NO": 999, "REV_AT_EPOCH": 15308, "BSTAR": 0.00012661581, "MEAN_MOTION_DOT": 3.36e-06, "MEAN_MOTION_DDOT": 0}, "tle": {"line1": "1 28051U 03046A   25341.97864520  .00000336  00000+0  12662-3 0  9996", "line2": "2 28051  98.2185  22.6063 0063926 195.0004 235.1832 14.36071413153086"}}, "geometry": {"type": "Point", "coordinates": [23.0346805835449, 0.164842107868741]}}, {"type": "Feature", "properties": {"norad_id": 28220, "name": "SHIYAN-1 (SY-1)", "group": "resource", "lat": -74.16588982362217, "lon": -165.55025621815787, "alt_km": 488.90720777253955, "timestamp": "2025-12-08T10:52:02.605768+00:00", "meta": {"OBJECT_NAME": "SHIYAN-1 (SY-1)", "OBJECT_ID": "2004-012A", "EPOCH": "2025-12-07T18:01:54.696000", "MEAN_MOTION": 15.27951241, "ECCENTRICITY": 0.00059612, "INCLINATION": 97.8938, "RA_OF_ASC_NODE": 42.9961, "ARG_OF_PERICENTER": 344.9547, "MEAN_ANOMALY": 15.1513, "EPHEMERIS_TYPE": 0, "CLASSIFICATION_TYPE": "U", "NORAD_CAT_ID": 28220, "ELEMENT_SET_NO": 999, "REV_AT_EPOCH": 18180, "BSTAR": 0.00071455584, "MEAN_MOTION_DOT": 0.00019449, "MEAN_MOTION_DDOT": 0}, "tle": {"line1": "1 28220U 04012A   25341.75132750  .00019449  00000+0  71456-3 0  9998", "line2": "2 28220  97.8938  42.9961 0005961 344.9547  15.1513 15.27951241181809"}}, "geometry": {"type": "Point", "coordinates": [-165.55025621815787, -74.16588982362217]}}, {"type": "Feature", "properties": {"norad_id": 28376, "name": "AURA", "group": "resource", "lat": -62.560748129815046, "lon": 96.29311850729404, "alt_km": 698.0796536609105, "timestamp": "2025-12-08T10:52:02.605779+00:00", "meta": {"OBJECT_NAME": "AURA", "OBJECT_ID": "2004-026A", "EPOCH": "2025-12-07T22:14:56.224032", "MEAN_MOTION": 14.60928925, "ECCENTRICITY": 0.00011831, "INCLINATION": 98.3181, "RA_OF_ASC_NODE": 292.1312, "ARG_OF_PERICENTER": 93.9656, "MEAN_ANOMALY": 266.1679, "EPHEMERIS_TYPE": 0, "CLASSIFICATION_TYPE": "U", "NORAD_CAT_ID": 28376, "ELEMENT_SET_NO": 999, "REV_AT_EPOCH": 13828, "BSTAR": 0.00036136832, "MEAN_MOTION_DOT": 1.722e-05, "MEAN_MOTION_DDOT": 0}, "tle": {"line1": "1 28376U 04026A   25341.92703963  .00001722  00000+0  36137-3 0  9996", "line2": "2 28376  98.3181 292.1312 0001183  93.9656 266.1679 14.60928925138284"}}, "geometry": {"type": "Point", "coordinates": [96.29311850729404, -62.560748129815046]}}]}